[{"OBJECT_NAME":"LYNK TOWER 5","OBJECT_ID":"2024-043Z","EPOCH":"2026-03-09T22:11:51.175104","MEAN_MOTION":15.29454506,"ECCENTRICITY":0.00104056,"INCLINATION":97.5458,"RA_OF_ASC_NODE":204.7305,"ARG_OF_PERICENTER":234.6422,"MEAN_ANOMALY":125.3846,"EPHEMERIS_TYPE":0,"CLASSIFICATION_TYPE":"U","NORAD_CAT_ID":59121,"ELEMENT_SET_NO":999,"REV_AT_EPOCH":11186,"BSTAR":0.00031901545,"MEAN_MOTION_DOT":9.048e-5,"MEAN_MOTION_DDOT":0},{"OBJECT_NAME":"STARLINK-31256","OBJECT_ID":"2024-044K","EPOCH":"2026-03-09T18:49:54.317280","MEAN_MOTION":15.27568251,"ECCENTRICITY":0.00010304,"INCLINATION":43,"RA_OF_ASC_NODE":106.1864,"ARG_OF_PERICENTER":276.2359,"MEAN_ANOMALY":83.8375,"EPHEMERIS_TYPE":0,"CLASSIFICATION_TYPE":"U","NORAD_CAT_ID":59161,"ELEMENT_SET_NO":999,"REV_AT_EPOCH":11361,"BSTAR":2.1629463e-5,"MEAN_MOTION_DOT":3.33e-6,"MEAN_MOTION_DDOT":0}]
